NORAD_CAT_ID,OBJECT_NAME,OBJECT_TYPE,EPOCH,MEAN_MOTION,ECCENTRICITY,INCLINATION,RA_OF_ASC_NODE,ARG_OF_PERICENTER,MEAN_ANOMALY,BSTAR,MEAN_MOTION_DOT,MEAN_MOTION_DDOT,TLE_LINE0,TLE_LINE1,TLE_LINE2,SEMIMAJOR_AXIS,PERIOD,APOGEE,PERIGEE,DECAYED
52837.0,STARLINK-4036,PAYLOAD,2023-03-21 03:09:20,15.08857538,0.0001614,53.2145,222.8893,49.0455,311.0676,0.0011842,0.00018618,0.0,0 STARLINK-4036,1 52837U 22062H   23080.13149191  .00018618  00000-0  11842-2 0  9991,2 52837  53.2145 222.8893 0001614  49.0455 311.0676 15.08857538 42055,6917.827,95.436,540.808,538.575,0.0
52837.0,STARLINK-4036,PAYLOAD,2023-03-21 12:41:39,15.08853047,0.0001162,53.2149,221.1051,79.2545,280.8578,0.0010692,0.00016775,0.0,0 STARLINK-4036,1 52837U 22062H   23080.52893207  .00016775  00000-0  10692-2 0  9992,2 52837  53.2149 221.1051 0001162  79.2545 280.8578 15.08853047 42112,6917.841,95.437,540.509,538.902,0.0
52837.0,STARLINK-4036,PAYLOAD,2023-03-22 14:07:49,15.08850123,0.0001165,53.2157,216.3476,95.5762,264.5363,0.0023834,0.00037858,0.0,0 STARLINK-4036,1 52837U 22062H   23081.58877229  .00037858  00000-0  23834-2 0  9992,2 52837  53.2157 216.3476 0001165  95.5762 264.5363 15.08850123 42273,6917.849,95.437,540.52,538.909,0.0
52837.0,STARLINK-4036,PAYLOAD,2023-03-22 18:53:59,15.0886562,0.0001156,53.2158,215.4556,96.0026,264.1097,0.0024624,0.00039147,0.0,0 STARLINK-4036,1 52837U 22062H   23081.78748952  .00039147  00000-0  24624-2 0  9995,2 52837  53.2158 215.4556 0001156  96.0026 264.1097 15.08865620 42304,6917.802,95.436,540.467,538.867,0.0
52837.0,STARLINK-4036,PAYLOAD,2023-03-23 12:23:13,15.08845475,0.0001513,53.2174,212.1873,108.619,251.4967,0.00090412,0.00014132,0.0,0 STARLINK-4036,1 52837U 22062H   23082.51613307  .00014132  00000-0  90412-3 0  9998,2 52837  53.2174 212.1873 0001513 108.6190 251.4967 15.08845475 42410,6917.864,95.437,540.775,538.682,0.0
52837.0,STARLINK-4036,PAYLOAD,2023-03-23 13:58:37,15.08841903,0.0001404,53.2155,211.8857,88.8931,271.2222,0.00054144,8.34e-05,0.0,0 STARLINK-4036,1 52837U 22062H   23082.58237376  .00008340  00000-0  54144-3 0  9999,2 52837  53.2155 211.8857 0001404  88.8931 271.2222 15.08841903 42425,6917.875,95.437,540.711,538.768,0.0
52837.0,STARLINK-4036,PAYLOAD,2023-03-24 07:27:50,15.08928035,0.0001204,53.2147,208.6159,83.9548,276.1581,0.0037366,0.00059829,0.0,0 STARLINK-4036,1 52837U 22062H   23083.31099725  .00059829  00000-0  37366-2 0  9999,2 52837  53.2147 208.6159 0001204  83.9548 276.1581 15.08928035 42539,6917.611,95.432,540.309,538.643,0.0
52837.0,STARLINK-4036,PAYLOAD,2023-03-24 12:13:58,15.08919062,0.0001462,53.2162,207.7268,86.6293,273.4866,0.0017946,0.00028451,0.0,0 STARLINK-4036,1 52837U 22062H   23083.50970905  .00028451  00000-0  17946-2 0  9997,2 52837  53.2162 207.7268 0001462  86.6293 273.4866 15.08919062 42569,6917.639,95.433,540.515,538.492,0.0
52837.0,STARLINK-4036,PAYLOAD,2023-03-24 13:49:21,15.08926017,0.000138,53.2149,207.4285,85.5818,274.5332,0.0026844,0.00042795,0.0,0 STARLINK-4036,1 52837U 22062H   23083.57594516  .00042795  00000-0  26844-2 0  9998,2 52837  53.2149 207.4285 0001380  85.5818 274.5332 15.08926017 42579,6917.617,95.432,540.437,538.528,0.0
52837.0,STARLINK-4036,PAYLOAD,2023-03-24 15:24:44,15.08945008,0.0001353,53.2162,207.1308,93.8588,266.2558,0.0038477,0.00061661,0.0,0 STARLINK-4036,1 52837U 22062H   23083.64218011  .00061661  00000-0  38477-2 0  9997,2 52837  53.2162 207.1308 0001353  93.8588 266.2558 15.08945008 42583,6917.559,95.431,540.36,538.488,0.0
52837.0,STARLINK-4036,PAYLOAD,2023-03-24 17:00:07,15.08956716,0.0001302,53.2162,206.8334,90.9684,269.1457,0.0041691,0.00066907,0.0,0 STARLINK-4036,1 52837U 22062H   23083.70841498  .00066907  00000-0  41691-2 0  9995,2 52837  53.2162 206.8334 0001302  90.9684 269.1457 15.08956716 42596,6917.524,95.43,540.289,538.488,0.0
52837.0,STARLINK-4036,PAYLOAD,2023-03-25 00:57:03,15.08845269,0.0002237,53.2158,205.3486,72.1217,288.0019,0.0018064,0.00028582,0.0,0 STARLINK-4036,1 52837U 22062H   23084.03962064  .00028582  00000-0  18064-2 0  9990,2 52837  53.2158 205.3486 0002237  72.1217 288.0019 15.08845269 42645,6917.864,95.437,541.277,538.182,0.0
52837.0,STARLINK-4036,PAYLOAD,2023-03-25 12:04:46,15.08796482,0.0002829,53.2155,203.2643,114.3213,245.8075,0.00070572,0.00010948,0.0,0 STARLINK-4036,1 52837U 22062H   23084.50332121  .00010948  00000-0  70572-3 0  9997,2 52837  53.2155 203.2643 0002829 114.3213 245.8075 15.08796482 42719,6918.013,95.44,541.836,537.921,0.0
52837.0,STARLINK-4036,PAYLOAD,2023-03-25 16:50:57,15.08824657,0.0002017,53.215,202.3743,79.9239,280.1981,0.0065346,0.00105223,0.0,0 STARLINK-4036,1 52837U 22062H   23084.70205129  .00105223  00000-0  65346-2 0  9999,2 52837  53.2150 202.3743 0002017  79.9239 280.1981 15.08824657 42745,6917.927,95.439,541.188,538.397,0.0
52837.0,STARLINK-4036,PAYLOAD,2023-03-26 00:47:53,15.08830637,0.0002418,53.2154,200.8892,80.9337,279.1928,0.0056199,0.00090279,0.0,0 STARLINK-4036,1 52837U 22062H   23085.03326033  .00090279  00000-0  56199-2 0  9994,2 52837  53.2154 200.8892 0002418  80.9337 279.1928 15.08830637 42792,6917.909,95.438,541.447,538.101,0.0
52837.0,STARLINK-4036,PAYLOAD,2023-03-26 11:55:36,15.08814244,0.0001519,53.2153,198.8058,88.0578,272.0588,0.0022991,0.00036466,0.0,0 STARLINK-4036,1 52837U 22062H   23085.49694750  .00036466  00000-0  22991-2 0  9999,2 52837  53.2153 198.8058 0001519  88.0578 272.0588 15.08814244 42866,6917.959,95.439,540.875,538.773,0.0
52837.0,STARLINK-4036,PAYLOAD,2023-03-26 15:06:23,15.08770141,0.0001901,53.2148,198.2115,78.3686,281.7519,0.0011331,0.00017757,0.0,0 STARLINK-4036,1 52837U 22062H   23085.62943868  .00017757  00000-0  11331-2 0  9999,2 52837  53.2148 198.2115 0001901  78.3686 281.7519 15.08770141 42885,6918.094,95.442,541.274,538.644,0.0
52837.0,STARLINK-4036,PAYLOAD,2023-03-26 19:52:33,15.08756781,0.0002176,53.2145,197.3185,64.7864,295.3354,0.0018449,0.00029129,0.0,0 STARLINK-4036,1 52837U 22062H   23085.82816964  .00029129  00000-0  18449-2 0  9990,2 52837  53.2145 197.3185 0002176  64.7864 295.3354 15.08756781 42917,6918.135,95.443,541.505,538.494,0.0
52837.0,STARLINK-4036,PAYLOAD,2023-03-27 13:21:47,15.08895363,0.000244,53.2138,194.0474,55.7681,304.3542,0.0035993,0.00057552,0.0,0 STARLINK-4036,1 52837U 22062H   23086.55680079  .00057552  00000-0  35993-2 0  9991,2 52837  53.2138 194.0474 0002440  55.7681 304.3542 15.08895363 43028,6917.711,95.434,541.264,537.888,0.0
52837.0,STARLINK-4036,PAYLOAD,2023-03-28 00:29:28,15.08885338,0.0002465,53.2144,191.9673,75.7176,284.409,0.0033297,0.00053172,0.0,0 STARLINK-4036,1 52837U 22062H   23087.02047045  .00053172  00000-0  33297-2 0  9993,2 52837  53.2144 191.9673 0002465  75.7176 284.4090 15.08885338 43094,6917.742,95.435,541.312,537.902,0.0
52837.0,STARLINK-4036,PAYLOAD,2023-03-28 13:12:33,15.0886463,0.0002179,53.2152,189.5877,82.8679,277.256,0.0030313,0.0004832,0.0,0 STARLINK-4036,1 52837U 22062H   23087.55038730  .00048320  00000-0  30313-2 0  9997,2 52837  53.2152 189.5877 0002179  82.8679 277.2560 15.08864630 43174,6917.805,95.436,541.177,538.163,0.0
52837.0,STARLINK-4036,PAYLOAD,2023-03-28 16:23:19,15.08872381,0.000235,53.2152,188.9908,91.4611,268.6651,0.0023727,0.0003771,0.0,0 STARLINK-4036,1 52837U 22062H   23087.68286424  .00037710  00000-0  23727-2 0  9998,2 52837  53.2152 188.9908 0002350  91.4611 268.6651 15.08872381 43194,6917.781,95.436,541.272,538.021,0.0
52837.0,STARLINK-4036,PAYLOAD,2023-03-28 17:58:42,15.08870231,0.0002727,53.2163,188.6928,93.9773,266.1531,0.0015029,0.00023732,0.0,0 STARLINK-4036,1 52837U 22062H   23087.74910353  .00023732  00000-0  15029-2 0  9995,2 52837  53.2163 188.6928 0002727  93.9773 266.1531 15.08870231 43203,6917.788,95.436,541.539,537.767,0.0
52837.0,STARLINK-4036,PAYLOAD,2023-03-29 00:20:15,15.08850763,0.0001625,53.2151,187.5051,101.5786,258.5388,0.00052098,8.016e-05,0.0,0 STARLINK-4036,1 52837U 22062H   23088.01406273  .00008016  00000-0  52098-3 0  9993,2 52837  53.2151 187.5051 0001625 101.5786 258.5388 15.08850763 43248,6917.847,95.437,540.837,538.588,0.0
52837.0,STARLINK-4036,PAYLOAD,2023-03-29 13:03:20,15.08850657,0.0002376,53.2155,185.1279,88.4969,271.6296,0.00052101,8.016e-05,0.0,0 STARLINK-4036,1 52837U 22062H   23088.54398501  .00008016  00000-0  52101-3 0  9990,2 52837  53.2155 185.1279 0002376  88.4969 271.6296 15.08850657 43323,6917.848,95.437,541.356,538.069,0.0
52837.0,STARLINK-4036,PAYLOAD,2023-03-29 17:49:29,15.08864133,0.0002277,53.2139,184.2321,107.2956,252.8285,0.0011692,0.00018381,0.0,0 STARLINK-4036,1 52837U 22062H   23088.74269952  .00018381  00000-0  11692-2 0  9994,2 52837  53.2139 184.2321 0002277 107.2956 252.8285 15.08864133 43355,6917.807,95.436,541.247,538.096,0.0
52837.0,STARLINK-4036,PAYLOAD,2023-03-30 12:54:06,15.08859312,0.0002071,53.2162,180.6645,96.5998,263.523,0.00057883,8.941e-05,0.0,0 STARLINK-4036,1 52837U 22062H   23089.53757429  .00008941  00000-0  57883-3 0  9997,2 52837  53.2162 180.6645 0002071  96.5998 263.5230 15.08859312 43473,6917.821,95.436,541.119,538.254,0.0
52837.0,STARLINK-4036,PAYLOAD,2023-03-31 06:23:21,15.08845273,0.0001418,53.2151,177.3937,81.3945,278.7208,0.00052196,8.03e-05,0.0,0 STARLINK-4036,1 52837U 22062H   23090.26622022  .00008030  00000-0  52196-3 0  9990,2 52837  53.2151 177.3937 0001418  81.3945 278.7208 15.08845273 43582,6917.864,95.437,540.71,538.748,0.0
52837.0,STARLINK-4036,PAYLOAD,2023-03-31 14:20:16,15.08884299,0.0001555,53.2155,175.907,80.1627,279.954,0.0026937,0.00042896,0.0,0 STARLINK-4036,1 52837U 22062H   23090.59741407  .00042896  00000-0  26937-2 0  9996,2 52837  53.2155 175.9070 0001555  80.1627 279.9540 15.08884299 43633,6917.745,95.435,540.686,538.534,0.0
52837.0,STARLINK-4036,PAYLOAD,2023-03-31 22:17:12,15.08846007,0.0001647,53.2155,174.4222,100.3844,259.7334,-6.6222e-05,-1.342e-05,0.0,0 STARLINK-4036,1 52837U 22062H   23090.92861698 -.00001342  00000-0 -66222-4 0  9994,2 52837  53.2155 174.4222 0001647 100.3844 259.7334 15.08846007 43681,6917.862,95.437,540.866,538.588,0.0
